[{"OBJECT_NAME":"STARLINK-35050","OBJECT_ID":"2025-194G","EPOCH":"2026-03-09T13:39:55.551744","MEAN_MOTION":15.05673487,"ECCENTRICITY":0.0001438,"INCLINATION":97.6015,"RA_OF_ASC_NODE":284.3372,"ARG_OF_PERICENTER":68.2557,"MEAN_ANOMALY":291.8822,"EPHEMERIS_TYPE":0,"CLASSIFICATION_TYPE":"U","NORAD_CAT_ID":65440,"ELEMENT_SET_NO":999,"REV_AT_EPOCH":2963,"BSTAR":0.00079353,"MEAN_MOTION_DOT":0.00011415,"MEAN_MOTION_DDOT":0},{"OBJECT_NAME":"SL-8 DEB","OBJECT_ID":"1976-098E","EPOCH":"2026-03-09T08:07:12.416160","MEAN_MOTION":15.06605169,"ECCENTRICITY":0.00102283,"INCLINATION":74.028,"RA_OF_ASC_NODE":26.283,"ARG_OF_PERICENTER":218.296,"MEAN_ANOMALY":294.2383,"EPHEMERIS_TYPE":0,"CLASSIFICATION_TYPE":"U","NORAD_CAT_ID":18504,"ELEMENT_SET_NO":999,"REV_AT_EPOCH":18055,"BSTAR":0.0011587434,"MEAN_MOTION_DOT":0.00017191,"MEAN_MOTION_DDOT":0}]
